[{"OBJECT_NAME":"COSMOS 2523","OBJECT_ID":"2017-037E","EPOCH":"2026-03-09T23:01:03.762912","MEAN_MOTION":14.95066265,"ECCENTRICITY":0.0066686,"INCLINATION":97.5062,"RA_OF_ASC_NODE":86.2978,"ARG_OF_PERICENTER":201.8356,"MEAN_ANOMALY":158.0021,"EPHEMERIS_TYPE":0,"CLASSIFICATION_TYPE":"U","NORAD_CAT_ID":42986,"ELEMENT_SET_NO":999,"REV_AT_EPOCH":45413,"BSTAR":0.00015362789,"MEAN_MOTION_DOT":1.699e-5,"MEAN_MOTION_DDOT":0},{"OBJECT_NAME":"DUMSAT","OBJECT_ID":"2000-009A","EPOCH":"2026-03-09T21:34:49.034496","MEAN_MOTION":14.97147245,"ECCENTRICITY":0.00231559,"INCLINATION":64.8536,"RA_OF_ASC_NODE":17.131,"ARG_OF_PERICENTER":263.9519,"MEAN_ANOMALY":95.8958,"EPHEMERIS_TYPE":0,"CLASSIFICATION_TYPE":"U","NORAD_CAT_ID":26086,"ELEMENT_SET_NO":999,"REV_AT_EPOCH":42337,"BSTAR":4.8857475e-5,"MEAN_MOTION_DOT":4.04e-6,"MEAN_MOTION_DDOT":0}]
